{
  "type": "FeatureCollection",
  "features": [
    {
      "type": "Feature",
      "geometry": {
        "type": "Polygon",
        "coordinates": [
          [
            [
              -79.9966,
              26.88223
            ],
            [
              -80.02275,
              26.97039
            ],
            [
              -80.14176,
              26.97094
            ],
            [
              -80.14201,
              26.95664
            ],
            [
              -80.88564,
              26.95892
            ],
            [
              -80.88183,
              26.3338
            ],
            [
              -80.29699,
              26.33436
            ],
            [
              -80.29705,
              26.35555
            ],
            [
              -80.20408,
              26.32782
            ],
            [
              -80.01528,
              26.32096
            ],
            [
              -80.00615,
              26.43281
            ],
            [
              -79.98248,
              26.56925
            ],
            [
              -79.97489,
              26.6975
            ],
            [
              -79.97965,
              26.75034
            ],
            [
              -79.97431,
              26.79241
            ],
            [
              -79.9966,
              26.88223
            ]
          ]
        ]
      },
      "properties": {
        "GEOID": "12099",
        "NAME": "Palm Beach County"
      }
    },
    {
      "type": "Feature",
      "geometry": {
        "type": "Polygon",
        "coordinates": [
          [
            [
              -80.19084,
              25.97323
            ],
            [
              -80.06289,
              25.97681
            ],
            [
              -80.04654,
              26.13855
            ],
            [
              -80.01528,
              26.32096
            ],
            [
              -80.20408,
              26.32782
            ],
            [
              -80.29705,
              26.35555
            ],
            [
              -80.29699,
              26.33436
            ],
            [
              -80.88128,
              26.33381
            ],
            [
              -80.87293,
              25.97943
            ],
            [
              -80.68004,
              25.97875
            ],
            [
              -80.68002,
              25.95686
            ],
            [
              -80.29497,
              25.95677
            ],
            [
              -80.29519,
              25.97057
            ],
            [
              -80.19084,
              25.97323
            ]
          ]
        ]
      },
      "properties": {
        "GEOID": "12011",
        "NAME": "Broward County"
      }
    },
    {
      "type": "Feature",
      "geometry": {
        "type": "Polygon",
        "coordinates": [
          [
            [
              -80.09178,
              25.72111
            ],
            [
              -80.06962,
              25.75566
            ],
            [
              -80.06289,
              25.97681
            ],
            [
              -80.29519,
              25.97057
            ],
            [
              -80.29497,
              25.95677
            ],
            [
              -80.68002,
              25.95686
            ],
            [
              -80.68004,
              25.97875
            ],
            [
              -80.87293,
              25.97943
            ],
            [
              -80.87319,
              25.36399
            ],
            [
              -80.86219,
              25.36419
            ],
            [
              -80.85817,
              25.17661
            ],
            [
              -80.83822,
              25.17479
            ],
            [
              -80.82574,
              25.16055
            ],
            [
              -80.80956,
              25.16905
            ],
            [
              -80.81442,
              25.18274
            ],
            [
              -80.79786,
              25.18122
            ],
            [
              -80.80106,
              25.14356
            ],
            [
              -80.7958,
              25.16211
            ],
            [
              -80.78221,
              25.16527
            ],
            [
              -80.77275,
              25.15059
            ],
            [
              -80.77709,
              25.13742
            ],
            [
              -80.76596,
              25.16228
            ],
            [
              -80.74293,
              25.14265
            ],
            [
              -80.72155,
              25.1455
            ],
            [
              -80.7472,
              25.15871
            ],
            [
              -80.74592,
              25.16539
            ],
            [
              -80.72991,
              25.15976
            ],
            [
              -80.7317,
              25.16744
            ],
            [
              -80.72308,
              25.16155
            ],
            [
              -80.72721,
              25.15288
            ],
            [
              -80.71733,
              25.15539
            ],
            [
              -80.70406,
              25.14042
            ],
            [
              -80.69785,
              25.16294
            ],
            [
              -80.68024,
              25.17456
            ],
            [
              -80.67807,
              25.16394
            ],
            [
              -80.67169,
              25.17458
            ],
            [
              -80.66983,
              25.16704
            ],
            [
              -80.65306,
              25.16287
            ],
            [
              -80.67309,
              25.13859
            ],
            [
              -80.65228,
              25.14658
            ],
            [
              -80.65641,
              25.15429
            ],
            [
              -80.64752,
              25.1715
            ],
            [
              -80.63363,
              25.17633
            ],
            [
              -80.66244,
              25.17498
            ],
            [
              -80.65163,
              25.19248
            ],
            [
              -80.60492,
              25.20273
            ],
            [
              -80.60958,
              25.18285
            ],
            [
              -80.62519,
              25.18255
            ],
            [
              -80.61445,
              25.17578
            ],
            [
              -80.58384,
              25.20056
            ],
            [
              -80.58237,
              25.21055
            ],
            [
              -80.56548,
              25.20958
            ],
            [
              -80.57126,
              25.19853
            ],
            [
              -80.57723,
              25.20222
            ],
            [
              -80.56539,
              25.19265
            ],
            [
              -80.55855,
              25.1993
            ],
            [
              -80.56195,
              25.21219
            ],
            [
              -80.54919,
              25.21405
            ],
            [
              -80.53584,
              25.19892
            ],
            [
              -80.53963,
              25.21351
            ],
            [
              -80.51918,
              25.22238
            ],
            [
              -80.49533,
              25.1995
            ],
            [
              -80.5006,
              25.21119
            ],
            [
              -80.48722,
              25.20713
            ],
            [
              -80.49418,
              25.22712
            ],
            [
              -80.48247,
              25.22488
            ],
            [
              -80.44421,
              25.2442
            ],
            [
              -80.43627,
              25.23576
            ],
            [
              -80.41887,
              25.23631
            ],
            [
              -80.41095,
              25.25347
            ],
            [
              -80.39493,
              25.25354
            ],
            [
              -80.39508,
              25.27294
            ],
            [
              -80.37915,
              25.28786
            ],
            [
              -80.37902,
              25.30589
            ],
            [
              -80.37212,
              25.31022
            ],
            [
              -80.26547,
              25.3543
            ],
            [
              -80.25022,
              25.33937
            ],
            [
              -80.18387,
              25.34818
            ],
            [
              -80.15291,
              25.39466
            ],
            [
              -80.1391,
              25.4331
            ],
            [
              -80.11143,
              25.44605
            ],
            [
              -80.09552,
              25.47103
            ],
            [
              -80.09693,
              25.49961
            ],
            [
              -80.11557,
              25.52666
            ],
            [
              -80.104,
              25.56187
            ],
            [
              -80.10777,
              25.60663
            ],
            [
              -80.09178,
              25.72111
            ]
          ]
        ]
      },
      "properties": {
        "GEOID": "12086",
        "NAME": "Miami-Dade County"
      }
    }
  ]
}
